COSMOS 2426 (717)       
1 29671U 06062B   20078.32319050  .00000059  00000-0  10000-3 0  9997
2 29671  64.9991 270.9904 0019741 169.7757  53.1812  2.12962359102956
COSMOS 2433 (720)       
1 32275U 07052A   20078.69447139 -.00000065  00000-0  10000-3 0  9999
2 32275  65.9557  31.9436 0004342 278.9261 322.1374  2.13104020 96473
COSMOS 2432 (719)       
1 32276U 07052B   20077.71521578 -.00000060  00000-0  10000-3 0  9997
2 32276  65.9663  32.0645 0012652 324.7303 195.4715  2.13103655 96457
COSMOS 2434 (721)       
1 32393U 07065A   20077.36801704  .00000059  00000-0  00000-0 0  9997
2 32393  64.6054 269.5776 0005207  83.6927 107.2303  2.13102887 95156
COSMOS 2436 (723)       
1 32395U 07065C   20078.43199584  .00000058  00000-0  10000-3 0  9997
2 32395  64.6181 269.5903 0015319   7.9917  55.4515  2.13102954 95114
COSMOS 2456 (730)       
1 36111U 09070A   20077.50748782 -.00000028  00000-0  00000-0 0  9996
2 36111  64.2192 149.2406 0004410 311.8923 159.4229  2.13102761 79821
COSMOS 2457 (733)       
1 36112U 09070B   20077.78948307 -.00000027  00000-0  00000+0 0  9990
2 36112  64.2006 149.1284 0005215 174.5569 276.8145  2.13101429 79835
COSMOS 2459 (731)       
1 36400U 10007A   20078.81831039 -.00000068  00000-0  10000-3 0  9990
2 36400  65.8589  30.9228 0027145 346.5745 204.5925  2.13105122 78204
COSMOS 2461 (735)       
1 36401U 10007B   20079.18323258 -.00000070  00000-0  10000-3 0  9994
2 36401  65.8502  30.8807 0006141  43.2508 336.9953  2.13101999 78213
COSMOS 2460 (732)       
1 36402U 10007C   20077.41131095 -.00000060  00000-0  10000-3 0  9994
2 36402  65.8406  30.8985 0002356 301.5315 198.6790  2.13101435 78176
COSMOS 2464 (736)       
1 37139U 10041C   20079.36174399  .00000052  00000-0  00000+0 0  9995
2 37139  64.2082 268.9937 0027780  14.5224 130.2081  2.13100709 74282
COSMOS 2474 (742)       
1 37829U 11055A   20079.38443378 -.00000016  00000-0  00000+0 0  9996
2 37829  64.5385 150.1656 0009684 246.4456  79.9724  2.13101687 65855
COSMOS 2476 (744)       
1 37867U 11064A   20078.41301679 -.00000025  00000-0  00000+0 0  9998
2 37867  64.5179 150.2414 0019939 239.0735 108.3288  2.13101915 65185
COSMOS 2477 (745)       
1 37868U 11064B   20077.85293116 -.00000028  00000-0  00000+0 0  9995
2 37868  64.5268 150.3196 0017770 241.2004 215.0633  2.13101493 65134
COSMOS 2475 (743)       
1 37869U 11064C   20078.87192998 -.00000022  00000-0  00000+0 0  9999
2 37869  64.5329 150.2821 0021692 262.1411 213.1760  2.13101833 65160
COSMOS 2485 (747)       
1 39155U 13019A   20079.31611064 -.00000017  00000-0  00000+0 0  9995
2 39155  64.6867 150.4607 0020496 234.8349 129.9963  2.13101842 53682
COSMOS 2492 (754)       
1 39620U 14012A   20078.48769149 -.00000067  00000-0  10000-3 0  9991
2 39620  65.7299  30.6599 0015874 321.8409 162.5618  2.13103304 46617
COSMOS 2500 (755)       
1 40001U 14032A   20078.65850152 -.00000068  00000-0  00000+0 0  9998
2 40001  65.6719  30.5762 0006429 228.4933 247.6956  2.13102645 44838
COSMOS 2501 (702K)      
1 40315U 14075A   20078.86153763  .00000054  00000-0  00000+0 0  9994
2 40315  63.9266 269.9915 0014800 204.3727 223.2830  2.13098589 41242
COSMOS 2514 (751)       
1 41330U 16008A   20078.03634238 -.00000065  00000-0  00000+0 0  9993
2 41330  65.4735  30.4915 0010113 228.8940 312.2492  2.13103050 31983
COSMOS 2516 (753)       
1 41554U 16032A   20078.85785244  .00000055  00000-0  00000+0 0  9990
2 41554  64.1491 270.0379 0010239 214.3325 127.7588  2.13101732 29604
COSMOS 2522 (752)       
1 42939U 17055A   20078.35474602  .00000057  00000-0  00000+0 0  9994
2 42939  64.3778 270.2070 0005056 251.0472 291.6430  2.13101987 19354
COSMOS 2527 (756)       
1 43508U 18053A   20079.40760622 -.00000016  00000-0  00000+0 0  9999
2 43508  64.8511 150.2857 0007766 234.0984  67.9788  2.13102596 13661
COSMOS 2529 (757)       
1 43687U 18086A   20079.32984719  .00000053  00000-0  00000+0 0  9999
2 43687  64.5919 270.2722 0007959 280.6480 245.7267  2.13102009 10680
COSMOS 2534 (758)       
1 44299U 19030A   20078.89794269  .00000056  00000-0  00000+0 0  9992
2 44299  64.6639 270.0926 0011654 299.3853  30.7293  2.13101938  6318
